IRIDIUM 119             
1 42959U 17061E   25280.84373723  .00000054  00000+0  12041-4 0  9998
2 42959  86.3958 130.7670 0002346  90.2559 269.8906 14.34217000418644
IRIDIUM 107             
1 42960U 17061F   25280.86276449  .00000133  00000+0  40549-4 0  9991
2 42960  86.3957 130.7786 0002521  81.6204 278.5278 14.34217829418658
IRIDIUM 132             
1 42961U 17061G   25280.86910610  .00000395  00000+0  13384-3 0  9993
2 42961  86.3956 130.7572 0002228  84.4280 275.7170 14.34218923418656
IRIDIUM 136             
1 42962U 17061H   25280.34267107  .00000340  00000+0  11443-3 0  9997
2 42962  86.3960 130.9827 0002306  87.2564 272.8896 14.34216825418595
IRIDIUM 139             
1 42963U 17061J   25280.34901667  .00000358  00000+0  12077-3 0  9997
2 42963  86.3959 131.0379 0002297  81.1357 279.0099 14.34217203418607
IRIDIUM 125             
1 42964U 17061K   25280.12702538  .00000310  00000+0  10355-3 0  9995
2 42964  86.3971 131.1849 0003566  77.7735 282.3860 14.34216043418587
IRIDIUM 135             
1 43070U 17083A   25280.51975724  .00000347  00000+0  11688-3 0  9990
2 43070  86.3932  67.6248 0002055  93.2660 266.8771 14.34218413407939
IRIDIUM 138             
1 43071U 17083B   25280.47533748  .00000453  00000+0  15451-3 0  9992
2 43071  86.3922  67.2998 0002415 101.5106 258.6362 14.34225322407915
